start=new Date('2022-05-01T00:00:00.000Z').valueOf();
sats=[{"REF_FRAME":"TEME","SITE":"AFETR","ECCENTRICITY":"0.00024870","OBJECT_NAME":"STARLINK-2060","EPHEMERIS_TYPE":"0","CENTER_NAME":"EARTH","INCLINATION":"53.0541","MEAN_MOTION_DDOT":"0.0000000000000","LAUNCH_DATE":"2021-02-16","FILE":"3423346","CLASSIFICATION_TYPE":"U","ARG_OF_PERICENTER":"45.9987","COUNTRY_CODE":"US","MEAN_ELEMENT_THEORY":"SGP4","OBJECT_TYPE":"PAYLOAD","MEAN_ANOMALY":"48.6946","EPOCH":"2022-04-30T22:00:00.999936","REV_AT_EPOCH":"361","OBJECT_ID":"2021-012BB","APOAPSIS":"545.956","NORAD_CAT_ID":"47669","RA_OF_ASC_NODE":"180.7873","GP_ID":"202390491","ELEMENT_SET_NO":"999","PERIOD":"95.530","TLE_LINE1":"1 47669U 21012BB  22120.91667824  .00025168  00000-0  16584-2 0  9996","RCS_SIZE":"LARGE","TLE_LINE2":"2 47669  53.0541 180.7873 0002487  45.9987  48.6946 15.07372524  3612","BSTAR":"0.00165840000000","SEMIMAJOR_AXIS":"6922.370","MEAN_MOTION_DOT":"0.00025168","MEAN_MOTION":"15.07372524","TIME_SYSTEM":"UTC","DECAY_DATE":null,"PERIAPSIS":"542.513"},{"ELEMENT_SET_NO":"999","PERIOD":"95.593","RA_OF_ASC_NODE":"256.4168","GP_ID":"202391743","TLE_LINE1":"1 47670U 21012BC  22120.78736325 -.00001208  00000-0 -62201-4 0  9996","OBJECT_ID":"2021-012BC","NORAD_CAT_ID":"47670","APOAPSIS":"549.026","MEAN_MOTION_DOT":"-0.00001208","SEMIMAJOR_AXIS":"6925.395","PERIAPSIS":"545.494","MEAN_MOTION":"15.06384831","DECAY_DATE":null,"TIME_SYSTEM":"UTC","RCS_SIZE":"LARGE","TLE_LINE2":"2 47670  53.0549 256.4168 0002550  35.7107 324.4053 15.06384831 67901","BSTAR":"-0.00006220100000","CENTER_NAME":"EARTH","EPHEMERIS_TYPE":"0","INCLINATION":"53.0549","FILE":"3423346","LAUNCH_DATE":"2021-02-16","MEAN_MOTION_DDOT":"0.0000000000000","SITE":"AFETR","REF_FRAME":"TEME","ECCENTRICITY":"0.00025500","OBJECT_NAME":"STARLINK-2062","REV_AT_EPOCH":"6790","EPOCH":"2022-04-30T18:53:48.184800","CLASSIFICATION_TYPE":"U","ARG_OF_PERICENTER":"35.7107","COUNTRY_CODE":"US","MEAN_ELEMENT_THEORY":"SGP4","OBJECT_TYPE":"PAYLOAD","MEAN_ANOMALY":"324.4053"},{"REF_FRAME":"TEME","SITE":"AFETR","ECCENTRICITY":"0.00014720","OBJECT_NAME":"STARLINK-2064","CENTER_NAME":"EARTH","EPHEMERIS_TYPE":"0","INCLINATION":"53.0528","MEAN_MOTION_DDOT":"0.0000000000000","FILE":"3423346","LAUNCH_DATE":"2021-02-16","CLASSIFICATION_TYPE":"U","ARG_OF_PERICENTER":"66.9370","COUNTRY_CODE":"US","MEAN_ANOMALY":"293.1774","OBJECT_TYPE":"PAYLOAD","MEAN_ELEMENT_THEORY":"SGP4","EPOCH":"2022-04-30T20:02:48.065856","REV_AT_EPOCH":"6792","OBJECT_ID":"2021-012BD","APOAPSIS":"548.235","NORAD_CAT_ID":"47671","RA_OF_ASC_NODE":"256.2088","GP_ID":"202391493","ELEMENT_SET_NO":"999","PERIOD":"95.592","TLE_LINE1":"1 47671U 21012BD  22120.83527854  .00004704  00000-0  33446-3 0  9998","RCS_SIZE":"LARGE","TLE_LINE2":"2 47671  53.0528 256.2088 0001472  66.9370 293.1774 15.06399466 67922","BSTAR":"0.00033446000000","SEMIMAJOR_AXIS":"6925.350","MEAN_MOTION_DOT":"0.00004704","MEAN_MOTION":"15.06399466","TIME_SYSTEM":"UTC","DECAY_DATE":null,"PERIAPSIS":"546.196"},{"MEAN_MOTION_DOT":"-0.00002323","SEMIMAJOR_AXIS":"6925.361","PERIAPSIS":"546.075","MEAN_MOTION":"15.06395975","DECAY_DATE":null,"TIME_SYSTEM":"UTC","RCS_SIZE":"LARGE","TLE_LINE2":"2 47672  53.0549 246.6016 0001662  83.0414 277.0764 15.06395975 68023","BSTAR":"-0.00013708000000","PERIOD":"95.592","ELEMENT_SET_NO":"999","RA_OF_ASC_NODE":"246.6016","GP_ID":"202390241","TLE_LINE1":"1 47672U 21012BE  22120.74773122 -.00002323  00000-0 -13708-3 0  9996","OBJECT_ID":"2021-012BE","NORAD_CAT_ID":"47672","APOAPSIS":"548.377","REV_AT_EPOCH":"6802","EPOCH":"2022-04-30T17:56:43.977408","ARG_OF_PERICENTER":"83.0414","CLASSIFICATION_TYPE":"U","COUNTRY_CODE":"US","MEAN_ELEMENT_THEORY":"SGP4","OBJECT_TYPE":"PAYLOAD","MEAN_ANOMALY":"277.0764","EPHEMERIS_TYPE":"0","CENTER_NAME":"EARTH","INCLINATION":"53.0549","FILE":"3423346","LAUNCH_DATE":"2021-02-16","MEAN_MOTION_DDOT":"0.0000000000000","SITE":"AFETR","REF_FRAME":"TEME","ECCENTRICITY":"0.00016620","OBJECT_NAME":"STARLINK-2065"},{"ARG_OF_PERICENTER":"60.3536","CLASSIFICATION_TYPE":"U","COUNTRY_CODE":"US","MEAN_ELEMENT_THEORY":"SGP4","OBJECT_TYPE":"PAYLOAD","MEAN_ANOMALY":"299.7626","REV_AT_EPOCH":"6790","EPOCH":"2022-04-30T18:59:06.856512","SITE":"AFETR","REF_FRAME":"TEME","ECCENTRICITY":"0.00017390","OBJECT_NAME":"STARLINK-2066","CENTER_NAME":"EARTH","EPHEMERIS_TYPE":"0","INCLINATION":"53.0564","FILE":"3423346","LAUNCH_DATE":"2021-02-16","MEAN_MOTION_DDOT":"0.0000000000000","RCS_SIZE":"LARGE","BSTAR":"-0.00006602200000","TLE_LINE2":"2 47673  53.0564 256.4176 0001739  60.3536 299.7626 15.06391791 67901","MEAN_MOTION_DOT":"-0.00001265","SEMIMAJOR_AXIS":"6925.374","PERIAPSIS":"546.034","MEAN_MOTION":"15.06391791","TIME_SYSTEM":"UTC","DECAY_DATE":null,"OBJECT_ID":"2021-012BF","NORAD_CAT_ID":"47673","APOAPSIS":"548.443","PERIOD":"95.593","ELEMENT_SET_NO":"999","RA_OF_ASC_NODE":"256.4176","GP_ID":"202390992","TLE_LINE1":"1 47673U 21012BF  22120.79105158 -.00001265  00000-0 -66022-4 0  9992"},{"ARG_OF_PERICENTER":"63.6135","CLASSIFICATION_TYPE":"U","OBJECT_TYPE":"PAYLOAD","MEAN_ELEMENT_THEORY":"SGP4","MEAN_ANOMALY":"296.5033","COUNTRY_CODE":"US","EPOCH":"2022-04-30T19:20:20.450400","REV_AT_EPOCH":"6791","REF_FRAME":"TEME","SITE":"AFETR","ECCENTRICITY":"0.00017430","OBJECT_NAME":"STARLINK-2067","INCLINATION":"53.0545","EPHEMERIS_TYPE":"0","CENTER_NAME":"EARTH","MEAN_MOTION_DDOT":"0.0000000000000","FILE":"3423346","LAUNCH_DATE":"2021-02-16","TLE_LINE2":"2 47674  53.0545 256.3322 0001743  63.6135 296.5033 15.06382032 67915","BSTAR":"-0.00020490000000","RCS_SIZE":"LARGE","SEMIMAJOR_AXIS":"6925.404","MEAN_MOTION_DOT":"-0.00003331","DECAY_DATE":null,"TIME_SYSTEM":"UTC","MEAN_MOTION":"15.06382032","PERIAPSIS":"546.062","OBJECT_ID":"2021-012BG","APOAPSIS":"548.476","NORAD_CAT_ID":"47674","GP_ID":"202391243","RA_OF_ASC_NODE":"256.3322","PERIOD":"95.593","ELEMENT_SET_NO":"999","TLE_LINE1":"1 47674U 21012BG  22120.80579225 -.00003331  00000-0 -20490-3 0  9999"},{"EPOCH":"2022-04-30T19:09:43.543296","REV_AT_EPOCH":"6791","ARG_OF_PERICENTER":"54.6601","CLASSIFICATION_TYPE":"U","COUNTRY_CODE":"US","OBJECT_TYPE":"PAYLOAD","MEAN_ELEMENT_THEORY":"SGP4","MEAN_ANOMALY":"305.4537","EPHEMERIS_TYPE":"0","CENTER_NAME":"EARTH","INCLINATION":"53.0530","MEAN_MOTION_DDOT":"0.0000000000000","FILE":"3423346","LAUNCH_DATE":"2021-02-16","REF_FRAME":"TEME","SITE":"AFETR","ECCENTRICITY":"0.00016010","OBJECT_NAME":"STARLINK-2078","MEAN_MOTION_DOT":"-0.00003573","SEMIMAJOR_AXIS":"6925.393","MEAN_MOTION":"15.06385598","DECAY_DATE":null,"TIME_SYSTEM":"UTC","PERIAPSIS":"546.149","RCS_SIZE":"LARGE","TLE_LINE2":"2 47675  53.0530 256.3814 0001601  54.6601 305.4537 15.06385598 67916","BSTAR":"-0.00022118000000","RA_OF_ASC_NODE":"256.3814","GP_ID":"202391993","ELEMENT_SET_NO":"999","PERIOD":"95.593","TLE_LINE1":"1 47675U 21012BH  22120.79842064 -.00003573  00000-0 -22118-3 0  9999","OBJECT_ID":"2021-012BH","APOAPSIS":"548.366","NORAD_CAT_ID":"47675"},{"RCS_SIZE":"LARGE","TLE_LINE2":"2 47676  53.0531 145.8587 0001910  46.3479 260.4312 15.06354823  3605","BSTAR":"0.00347260000000","MEAN_MOTION_DOT":"0.00051761","SEMIMAJOR_AXIS":"6925.487","MEAN_MOTION":"15.06354823","DECAY_DATE":null,"TIME_SYSTEM":"UTC","PERIAPSIS":"546.029","OBJECT_ID":"2021-012BJ","APOAPSIS":"548.675","NORAD_CAT_ID":"47676","RA_OF_ASC_NODE":"145.8587","GP_ID":"202390742","ELEMENT_SET_NO":"999","PERIOD":"95.595","TLE_LINE1":"1 47676U 21012BJ  22120.91667824  .00051761  00000-0  34726-2 0  9990","ARG_OF_PERICENTER":"46.3479","CLASSIFICATION_TYPE":"U","COUNTRY_CODE":"US","MEAN_ANOMALY":"260.4312","OBJECT_TYPE":"PAYLOAD","MEAN_ELEMENT_THEORY":"SGP4","EPOCH":"2022-04-30T22:00:00.999936","REV_AT_EPOCH":"360","REF_FRAME":"TEME","SITE":"AFETR","OBJECT_NAME":"STARLINK-2083","ECCENTRICITY":"0.00019100","EPHEMERIS_TYPE":"0","CENTER_NAME":"EARTH","INCLINATION":"53.0531","MEAN_MOTION_DDOT":"0.0000000000000","FILE":"3423346","LAUNCH_DATE":"2021-02-16"},{"OBJECT_ID":"2021-012BK","NORAD_CAT_ID":"47677","APOAPSIS":"548.323","ELEMENT_SET_NO":"999","PERIOD":"95.592","GP_ID":"202390492","RA_OF_ASC_NODE":"276.1501","TLE_LINE1":"1 47677U 21012BK  22120.85185816  .00000378  00000-0  44306-4 0  9995","BSTAR":"0.00004430600000","TLE_LINE2":"2 47677  53.0537 276.1501 0001612  64.8434 295.2722 15.06402291 67638","RCS_SIZE":"LARGE","SEMIMAJOR_AXIS":"6925.342","MEAN_MOTION_DOT":"0.00000378","PERIAPSIS":"546.090","DECAY_DATE":null,"TIME_SYSTEM":"UTC","MEAN_MOTION":"15.06402291","SITE":"AFETR","REF_FRAME":"TEME","OBJECT_NAME":"STARLINK-2090","ECCENTRICITY":"0.00016120","INCLINATION":"53.0537","CENTER_NAME":"EARTH","EPHEMERIS_TYPE":"0","LAUNCH_DATE":"2021-02-16","FILE":"3423346","MEAN_MOTION_DDOT":"0.0000000000000","ARG_OF_PERICENTER":"64.8434","CLASSIFICATION_TYPE":"U","OBJECT_TYPE":"PAYLOAD","MEAN_ANOMALY":"295.2722","MEAN_ELEMENT_THEORY":"SGP4","COUNTRY_CODE":"US","REV_AT_EPOCH":"6763","EPOCH":"2022-04-30T20:26:40.545024"},{"REV_AT_EPOCH":"6764","EPOCH":"2022-04-30T19:32:15.273024","COUNTRY_CODE":"US","OBJECT_TYPE":"PAYLOAD","MEAN_ELEMENT_THEORY":"SGP4","MEAN_ANOMALY":"284.3824","ARG_OF_PERICENTER":"75.7316","CLASSIFICATION_TYPE":"U","FILE":"3423346","LAUNCH_DATE":"2021-02-16","MEAN_MOTION_DDOT":"0.0000000000000","EPHEMERIS_TYPE":"0","CENTER_NAME":"EARTH","INCLINATION":"53.0548","ECCENTRICITY":"0.00013630","OBJECT_NAME":"STARLINK-2095","SITE":"AFETR","REF_FRAME":"TEME","PERIAPSIS":"546.291","MEAN_MOTION":"15.06392990","TIME_SYSTEM":"UTC","DECAY_DATE":null,"MEAN_MOTION_DOT":"-0.00000751","SEMIMAJOR_AXIS":"6925.370","RCS_SIZE":"LARGE","BSTAR":"-0.00003155500000","TLE_LINE2":"2 47679  53.0548 276.3205 0001363  75.7316 284.3824 15.06392990 67645","TLE_LINE1":"1 47679U 21012BM  22120.81406566 -.00000751  00000-0 -31555-4 0  9990","ELEMENT_SET_NO":"999","PERIOD":"95.593","RA_OF_ASC_NODE":"276.3205","GP_ID":"202391744","NORAD_CAT_ID":"47679","APOAPSIS":"548.179","OBJECT_ID":"2021-012BM"}];
